OBJECT_NAME,OBJECT_ID,EPOCH,MEAN_MOTION,ECCENTRICITY,INCLINATION,RA_OF_ASC_NODE,ARG_OF_PERICENTER,MEAN_ANOMALY,EPHEMERIS_TYPE,CLASSIFICATION_TYPE,NORAD_CAT_ID,ELEMENT_SET_NO,REV_AT_EPOCH,BSTAR,MEAN_MOTION_DOT,MEAN_MOTION_DDOT
STARLINK-34827,2025-161Z,2026-05-11T21:52:13.574208,15.30197923,.0001175,53.1600,0.2347,88.6741,271.4394,0,U,65038,999,4391,.14952E-3,.4071E-4,0
STARLINK-34721,2025-161AA,2026-05-12T00:57:17.608032,15.30206355,.00011719,53.1606,359.6144,89.9421,270.1715,0,U,65039,999,4393,.5437835E-3,.15784E-3,0
STARLINK-34819,2025-161AB,2026-05-11T21:46:18.643008,15.30209879,.0001162,53.1609,0.9183,71.9005,288.2123,0,U,65040,999,4390,.44254E-3,.12774E-3,0
STARLINK-34820,2025-161AC,2026-05-11T22:19:34.889952,15.30196901,.0001337,53.1604,0.3544,90.1355,269.9799,0,U,65041,999,4391,.18823E-3,.5219E-4,0
STARLINK-34824,2025-161AD,2026-05-12T00:00:02.000160,15.30183316,.0001164,53.1589,359.9386,85.6090,345.5261,0,U,65042,999,578,.81192981E-3,.23752E-3,0
HULIANWANG DIGUI-40,2025-162A,2026-05-12T05:31:39.479520,13.29323096,.0000567,50.0013,34.9111,344.5423,15.5432,0,U,65043,999,3856,.60071145E-4,-.96E-6,0
HULIANWANG DIGUI-41,2025-162B,2026-05-12T05:19:37.192800,13.29322673,.00005728,50.0021,34.8902,337.8098,22.2749,0,U,65044,999,3857,.60288579E-4,-.96E-6,0
HULIANWANG DIGUI-42,2025-162C,2026-05-12T05:07:33.374208,13.29323336,.00005765,49.9987,34.7670,342.1548,17.9304,0,U,65045,999,3857,.49513332E-4,-.101E-5,0
HULIANWANG DIGUI-43,2025-162D,2026-05-12T04:55:28.401312,13.29321801,.00005424,50.0005,34.7640,348.4820,11.6039,0,U,65046,999,3857,.5802797E-4,-.97E-6,0
HULIANWANG DIGUI-44,2025-162E,2026-05-12T04:42:45.314784,13.29314329,.00006473,50.0032,34.7796,126.7688,233.3243,0,U,65047,999,3858,.41758943E-4,-.105E-5,0
HULIANWANG DIGUI-45,2025-162F,2026-05-12T04:31:28.783776,13.29322565,.00005672,50.0061,34.8077,341.8253,18.2599,0,U,65048,999,3857,.55516561E-4,-.98E-6,0
HULIANWANG DIGUI-46,2025-162G,2026-05-12T06:07:43.382208,13.29322437,.00005916,50.0080,34.5364,342.7627,17.3225,0,U,65049,999,3858,.57623656E-4,-.97E-6,0
HULIANWANG DIGUI-47,2025-162H,2026-05-12T05:55:41.188800,13.29322132,.00006058,50.0044,34.4128,346.7085,13.3771,0,U,65050,999,3858,.7177339E-4,-.91E-6,0
HULIANWANG DIGUI-48,2025-162J,2026-05-12T05:43:42.399552,13.29323151,.0000576,50.0054,34.3918,344.6731,15.4124,0,U,65051,999,3858,.59614032E-4,-.96E-6,0
NISAR,2025-163A,2026-05-12T05:37:33.635712,14.42504320,.00012149,98.4053,320.4243,88.7793,271.3536,0,U,65053,999,4120,.41441266E-4,.94E-6,0
PRSC-S1,2025-164A,2026-05-12T06:14:56.076000,15.06127566,.00047204,41.1291,130.0952,119.0328,241.0959,0,U,65055,999,4301,.14561813E-3,.199E-4,0
STARLINK-34788,2025-165A,2026-05-12T05:54:48.058848,15.05633837,.00032539,97.5061,209.7171,171.5228,188.6055,0,U,65056,999,4435,-.41183862E-3,-.5995E-4,0
STARLINK-34745,2025-165B,2026-05-12T04:46:59.911392,15.05653309,.00025703,97.5023,209.6295,164.9668,195.1636,0,U,65057,999,4434,.5696945E-5,.23E-6,0
STARLINK-34779,2025-165C,2026-05-12T02:39:24.438528,15.05651920,.00028306,97.5095,209.5949,196.6710,163.4424,0,U,65058,999,4433,.10113274E-3,.14E-4,0
STARLINK-34803,2025-165D,2026-05-12T05:42:49.363776,15.05666280,.00015677,97.5085,209.7315,216.2192,143.8929,0,U,65059,999,4435,.41921593E-3,.5997E-4,0
STARLINK-34717,2025-165E,2026-05-12T05:26:53.928384,15.05632319,.0002183,97.5096,209.7474,174.7534,185.3716,0,U,65060,999,4435,-.3844152E-3,-.5599E-4,0
STARLINK-34750,2025-165F,2026-05-12T05:06:57.438720,15.05652712,.0001791,97.5033,209.7651,157.8572,202.2732,0,U,65061,999,4435,.1050975E-3,.1457E-4,0
STARLINK-34708,2025-165G,2026-05-12T04:23:05.186688,15.05654589,.00025201,97.5013,209.6503,157.5087,202.6251,0,U,65062,999,4434,.14535387E-3,.2039E-4,0
STARLINK-34798,2025-165H,2026-05-12T02:07:31.049184,15.05657198,.00019131,97.5056,209.6259,160.7756,199.3543,0,U,65063,999,4433,.18485269E-3,.2609E-4,0
STARLINK-34793,2025-165J,2026-05-12T05:30:53.636544,15.05618494,.00019341,97.5097,209.7432,198.7085,161.4072,0,U,65064,999,4435,-.63233004E-3,-.9164E-4,0
STARLINK-34806,2025-165K,2026-05-12T06:30:41.139936,15.05638131,.0001692,97.5051,209.6858,135.5231,224.6132,0,U,65065,999,4435,-.31825394E-3,-.4647E-4,0
STARLINK-34739,2025-165L,2026-05-12T02:03:31.495680,15.05658817,.00013781,97.5072,209.6294,180.7286,179.3940,0,U,65066,999,4433,.26311456E-3,.374E-4,0
STARLINK-34802,2025-165M,2026-05-12T04:27:04.559616,15.05647254,.00014092,97.5053,209.6508,174.6141,185.5101,0,U,65067,999,4434,.42693577E-4,.557E-5,0
STARLINK-34810,2025-165N,2026-05-12T04:39:02.455488,15.05631883,.00011915,97.5067,209.6391,167.8752,192.2504,0,U,65068,999,4434,-.41359215E-3,-.6019E-4,0
STARLINK-34809,2025-165P,2026-05-12T04:31:03.489312,15.05655638,.00012672,97.5015,209.6440,167.2221,192.9038,0,U,65069,999,4434,.21344174E-3,.3022E-4,0
STARLINK-34794,2025-165Q,2026-05-12T04:50:59.402688,15.05651327,.00014971,97.5070,209.6248,182.6843,177.4377,0,U,65070,999,4434,.3918785E-4,.506E-5,0
STARLINK-34805,2025-165R,2026-05-12T06:18:43.995744,15.05654026,.0003545,97.5035,209.6991,160.6381,199.4981,0,U,65071,999,4435,.13178829E-3,.1843E-4,0
STARLINK-34735,2025-165S,2026-05-12T02:27:26.701632,15.05663152,.0001625,97.5063,209.6050,185.1614,174.9597,0,U,65072,999,4433,.384413E-3,.5493E-4,0
STARLINK-34781,2025-165T,2026-05-12T05:02:58.521984,15.05638271,.00006768,97.5066,209.7689,147.9416,212.1852,0,U,65073,999,4435,-.17767117E-3,-.2621E-4,0
STARLINK-34780,2025-165U,2026-05-12T06:10:44.785056,15.05654534,.00007805,97.5012,209.7071,155.7455,204.3809,0,U,65074,999,4435,.18717903E-3,.2643E-4,0
STARLINK-34771,2025-167A,2026-05-12T06:58:00.859008,15.30184916,.00008694,53.1584,88.7152,71.8663,288.2432,0,U,65078,999,4325,.30033381E-3,.8542E-4,0
STARLINK-34634,2025-167B,2026-05-12T07:01:19.836480,15.34433188,.00014414,53.1590,88.7311,87.9738,272.1429,0,U,65079,999,4325,.56142118E-3,.18659E-3,0
STARLINK-34267,2025-167C,2026-05-12T05:30:34.485120,15.34396525,.00015832,53.1589,89.0451,80.6089,279.5092,0,U,65080,999,4446,.36778057E-3,.12068E-3,0
STARLINK-34561,2025-167D,2026-05-12T03:39:16.404480,15.30205971,.00012553,53.1589,89.2741,87.7212,272.3932,0,U,65081,999,4448,.33691395E-3,.9634E-4,0
STARLINK-34626,2025-167E,2026-05-12T03:54:22.009536,15.42172235,.00012034,53.1582,90.0847,85.0257,275.0886,0,U,65082,999,4322,.66843412E-3,.28797E-3,0
STARLINK-34247,2025-167F,2026-05-12T07:07:08.597856,15.30180333,.0001212,53.1570,88.7546,81.0600,279.0538,0,U,65083,999,4325,.12333065E-3,.3293E-4,0
STARLINK-34601,2025-167G,2026-05-12T06:29:54.019968,15.42176031,.00011387,53.1599,89.9665,88.0554,272.0582,0,U,65084,999,4322,.56245765E-3,.24154E-3,0
STARLINK-34822,2025-167J,2026-05-12T02:28:55.677216,15.30203699,.00006833,53.1575,92.4753,82.4257,277.6821,0,U,65086,999,4318,.32010526E-3,.9134E-4,0
STARLINK-34686,2025-167K,2026-05-12T03:58:25.427712,15.30201507,.00012135,53.1578,92.1486,81.9802,278.1336,0,U,65087,999,4319,.42535863E-3,.1226E-3,0
STARLINK-34594,2025-167L,2026-05-12T07:01:58.270656,15.30202105,.0001207,53.1589,91.5243,82.4605,277.6532,0,U,65088,999,4321,.39785387E-3,.11443E-3,0
STARLINK-34665,2025-167M,2026-05-12T06:57:26.154720,15.30181583,.00012093,53.1593,91.5036,82.7429,277.3709,0,U,65089,999,4321,.41864732E-3,.12053E-3,0
STARLINK-34673,2025-167N,2026-05-12T03:44:44.830752,15.30207256,.00013904,53.1593,92.0910,82.8436,277.2722,0,U,65090,999,4319,.3697761E-3,.10611E-3,0
STARLINK-34648,2025-167P,2026-05-12T06:42:49.313088,15.42167621,.00012477,53.1599,90.0202,93.1577,266.9572,0,U,65091,999,4323,.85372396E-3,.36927E-3,0
STARLINK-34640,2025-167Q,2026-05-12T06:46:46.507872,15.30201790,.00013233,53.1604,91.4550,85.7665,274.3487,0,U,65092,999,4321,.337648E-3,.9655E-4,0
STARLINK-34266,2025-167R,2026-05-12T03:21:59.397984,15.42168335,.0001427,53.1603,90.5697,81.4026,278.7141,0,U,65093,999,4321,.10310657E-2,.44731E-3,0
STARLINK-34769,2025-167S,2026-05-12T03:23:00.553632,15.42196634,.00029317,53.1599,90.5734,91.0028,269.1313,0,U,65094,999,4320,.71257112E-3,.30761E-3,0
STARLINK-34768,2025-167T,2026-05-12T06:28:54.473952,15.42146440,.00010801,53.1583,89.9571,102.8205,257.2921,0,U,65095,999,4323,.59916202E-3,.25737E-3,0
STARLINK-34759,2025-167U,2026-05-12T06:26:04.062912,15.42175707,.00008604,53.1604,89.9435,103.2993,256.8109,0,U,65096,999,4323,.61055819E-3,.26262E-3,0
STARLINK-34741,2025-167V,2026-05-12T06:31:12.730368,15.42173240,.00010953,53.1590,89.9655,89.7203,270.3928,0,U,65097,999,4323,.53860495E-3,.23107E-3,0
STARLINK-34764,2025-167W,2026-05-12T07:02:08.292192,15.34400808,.00011075,53.1602,90.8116,81.5554,278.5574,0,U,65098,999,4322,.37983519E-3,.12479E-3,0
STARLINK-34815,2025-167X,2026-05-12T06:53:02.884416,15.34401839,.00009035,53.1596,90.7730,61.1777,298.9316,0,U,65099,999,4322,.49189953E-3,.16281E-3,0
STARLINK-34814,2025-167Y,2026-05-12T04:12:43.335648,15.34402847,.00005606,53.1590,91.4952,69.1700,290.9362,0,U,65100,999,4320,.44487756E-3,.14686E-3,0
STARLINK-34285,2025-167Z,2026-05-12T06:09:45.065376,15.31455098,.00020311,53.1579,91.2930,75.0758,285.0468,0,U,65101,999,4321,.16336613E-1,.540862E-2,0
STARLINK-34857,2025-167AA,2026-05-12T05:46:52.444128,15.42168464,.00011944,53.1583,89.7725,86.8407,273.2736,0,U,65102,999,4322,.34559332E-3,.1466E-3,0
STARLINK-34887,2025-167AB,2026-05-12T06:02:42.362880,15.30196402,.00014105,53.1582,91.2610,94.8841,265.2321,0,U,65103,999,4321,.15384765E-3,.4199E-4,0
STARLINK-34481,2025-167AC,2026-05-12T04:04:19.899264,15.42168542,.00010455,53.1589,90.0371,65.2209,294.8906,0,U,65104,999,4321,.47622969E-4,.1662E-4,0
STARLINK-34545,2025-167AD,2026-05-12T04:12:31.789152,15.42172107,.00011873,53.1585,90.0751,90.3118,269.8024,0,U,65105,999,4322,.49370693E-3,.2114E-3,0
HULIANWANG DIGUI-49,2025-168A,2026-05-12T05:24:35.899200,13.29316825,.00084546,50.0019,94.9434,353.8322,6.2444,0,U,65106,999,3790,.64087771E-4,-.94E-6,0
HULIANWANG DIGUI-50,2025-168B,2026-05-12T07:00:43.972704,13.29316506,.00093001,49.9990,94.5579,340.8890,19.1632,0,U,65107,999,3791,.72512006E-4,-.9E-6,0
